OBJECT_NAME,OBJECT_ID,EPOCH,MEAN_MOTION,ECCENTRICITY,INCLINATION,RA_OF_ASC_NODE,ARG_OF_PERICENTER,MEAN_ANOMALY,EPHEMERIS_TYPE,CLASSIFICATION_TYPE,NORAD_CAT_ID,ELEMENT_SET_NO,REV_AT_EPOCH,BSTAR,MEAN_MOTION_DOT,MEAN_MOTION_DDOT
IRIDIUM 148,2018-030G,2026-07-04T17:21:47.369952,14.34219440,.00023786,86.3963,283.1287,95.5051,264.6416,0,U,43255,999,43268,.10896259E-3,.325E-5,0
IRIDIUM 142,2018-030H,2026-07-04T13:15:11.414880,14.34218108,.00023267,86.3963,283.0887,99.5169,260.6290,0,U,43256,999,43262,.12347604E-3,.366E-5,0
IRIDIUM 150,2018-030J,2026-07-04T12:29:31.387488,14.34218597,.0002206,86.3967,283.2190,96.0982,264.0465,0,U,43257,999,43264,.57914205E-4,.182E-5,0
IRIDIUM 143,2018-030K,2026-07-04T12:02:07.255968,14.34216484,.00022773,86.3969,283.3200,98.3411,261.8043,0,U,43258,999,43257,-.12635906E-4,-.16E-6,0
GAOFEN-1 02,2018-031A,2026-07-04T23:41:01.279104,14.76459523,.00020701,98.0515,248.4633,338.7530,21.3593,0,U,43259,999,44532,.65192904E-4,.402E-5,0
GAOFEN-1 03,2018-031B,2026-07-04T23:09:23.231808,14.76452600,.00031845,98.0509,248.2980,41.6750,318.4702,0,U,43260,999,44531,.14135769E-3,.932E-5,0
GAOFEN-1 04,2018-031D,2026-07-04T22:34:29.105760,14.76460318,.00017109,98.0516,248.4667,61.3587,298.7794,0,U,43262,999,44530,.14623935E-3,.966E-5,0
SUPERBIRD-B3,2018-033A,2026-07-02T18:10:23.453760,1.00272254,.00011931,0.0160,15.2519,88.0014,252.1498,0,U,43271,999,3021,0,-.81E-6,0
HYLAS 4,2018-033B,2026-07-02T18:57:18.396000,1.00268685,.00009742,0.0202,24.2276,121.2451,26.1743,0,U,43272,999,3022,0,0,0
YAOGAN-31 01A,2018-034A,2026-07-04T23:24:11.088576,13.45463297,.02768431,63.3950,45.5109,7.5502,352.9563,0,U,43275,999,40449,.8944017E-5,-.84E-6,0
YAOGAN-31 01B,2018-034B,2026-07-04T23:25:58.722240,13.45459074,.02768592,63.3952,45.5149,7.5035,353.0005,0,U,43276,999,40461,.22603786E-4,-.74E-6,0
YAOGAN-31 01C,2018-034C,2026-07-04T23:30:01.353312,13.45445278,.02769856,63.3961,44.8743,7.2138,353.2748,0,U,43277,999,40463,-.22017343E-4,-.107E-5,0
WEINA 1B,2018-034E,2026-07-04T23:48:11.347200,13.45372278,.02766775,63.3955,46.0734,7.9175,352.6085,0,U,43279,999,40460,-.3546637E-4,-.117E-5,0
IRNSS-1I,2018-035A,2026-07-04T18:29:38.650272,1.00278926,.00177271,28.7927,73.9240,182.9277,358.3682,0,U,43286,999,3025,0,.82E-6,0
USA 283,2018-036A,2026-07-01T11:14:42.491040,1.00269042,.0000064,0.0077,35.3198,9.2412,177.7500,0,U,43339,999,2543,0,0,0
COSMOS 2526,2018-037A,2026-07-05T00:26:31.405920,1.00274717,.00007198,0.0319,74.0909,193.0712,150.5399,0,U,43432,999,3013,0,-.331E-5,0
SENTINEL-3B,2018-039A,2026-07-04T10:35:58.954848,14.26739817,.00008916,98.6242,252.7259,116.8484,243.2787,0,U,43437,999,42658,.7502834E-4,.138E-5,0
ZHUHAI-1 OVS-02,2018-040B,2026-07-05T00:17:08.288736,15.25275988,.00039902,97.0382,202.1858,161.7874,198.3508,0,U,43440,999,45543,.44208016E-3,.11065E-3,0
ZHUHAI-1 OHS-02,2018-040C,2026-07-04T23:41:07.592352,15.26156128,.00103106,97.0363,209.1196,156.3987,203.7727,0,U,43441,999,11699,.47615982E-3,.1226E-3,0
USA 285,2018-036E,2026-07-04T18:21:55.267200,1.02114377,.00108799,7.1568,66.7398,167.5714,185.8145,0,U,43445,999,2711,0,-.98E-6,0
USA 286,2018-036F,2026-07-02T01:37:41.882304,1.02122725,.00105187,7.1482,66.7455,165.9237,352.0955,0,U,43446,999,2707,0,-.18E-5,0
APSTAR-6C,2018-041A,2026-07-05T00:19:32.588832,1.00267569,.0000595,0.0350,315.5482,76.0555,30.2996,0,U,43450,999,2998,0,-.305E-5,0
GAOFEN-5 01,2018-043A,2026-07-04T16:01:09.911712,14.60618723,.00026259,98.4581,157.6218,52.0777,308.0659,0,U,43461,999,43424,.11478406E-3,.509E-5,0
BANGABANDHUSAT-1,2018-044A,2026-07-04T21:19:38.637696,1.00271937,.00019368,0.0319,93.0951,14.4041,254.4112,0,U,43463,999,2988,0,-.35E-5,0
GRACE-FO 1,2018-047A,2026-07-04T15:50:02.252256,15.38387154,.0012985,88.9914,195.5504,53.2728,306.9717,0,U,43476,999,45248,.15416313E-3,.5878E-4,0
GRACE-FO 2,2018-047B,2026-07-04T15:50:26.231712,15.38385192,.00129992,88.9913,195.5502,53.3118,306.9330,0,U,43477,999,45248,.15583249E-3,.5941E-4,0
IRIDIUM 161,2018-047C,2026-07-04T10:22:36.901056,14.43282122,.00024091,86.4473,81.2605,79.5132,280.6341,0,U,43478,999,42762,.10239716E-3,.365E-5,0
IRIDIUM 152,2018-047D,2026-07-04T11:22:50.994912,14.34217435,.00022126,86.3949,81.1043,81.7272,278.4174,0,U,43479,999,42496,.12562338E-3,.372E-5,0
IRIDIUM 147,2018-047E,2026-07-04T09:51:29.766816,14.34216834,.00023025,86.3946,81.1356,86.3202,273.8257,0,U,43480,999,42495,.92564513E-4,.279E-5,0
IRIDIUM 110,2018-047F,2026-07-04T10:00:38.270304,14.34217730,.00023289,86.3953,81.2259,76.0453,284.1001,0,U,43481,999,42494,.3105604E-5,.28E-6,0
IRIDIUM 162,2018-047G,2026-07-04T16:52:53.090400,14.43281630,.00022555,86.4472,81.0379,83.6887,276.4571,0,U,43482,999,42765,.12197312E-3,.43E-5,0
