IRIDIUM 148             
1 43255U 18030G   26185.72346493  .00000325  00000+0  10896-3 0  9997
2 43255  86.3963 283.1287 0002378  95.5051 264.6416 14.34219440432686
IRIDIUM 142             
1 43256U 18030H   26185.55221545  .00000366  00000+0  12348-3 0  9998
2 43256  86.3963 283.0887 0002326  99.5169 260.6290 14.34218108432629
IRIDIUM 150             
1 43257U 18030J   26185.52050217  .00000182  00000+0  57914-4 0  9997
2 43257  86.3967 283.2190 0002206  96.0982 264.0465 14.34218597432641
IRIDIUM 143             
1 43258U 18030K   26185.50147287 -.00000016  00000+0 -12636-4 0  9990
2 43258  86.3969 283.3200 0002277  98.3411 261.8043 14.34216484432579
GAOFEN-1 02             
1 43259U 18031A   26185.98682036  .00000402  00000+0  65193-4 0  9993
2 43259  98.0515 248.4633 0002070 338.7530  21.3593 14.76459523445328
GAOFEN-1 03             
1 43260U 18031B   26185.96485222  .00000932  00000+0  14136-3 0  9999
2 43260  98.0509 248.2980 0003184  41.6750 318.4702 14.76452600445317
GAOFEN-1 04             
1 43262U 18031D   26185.94061465  .00000966  00000+0  14624-3 0  9997
2 43262  98.0516 248.4667 0001710  61.3587 298.7794 14.76460318445306
SUPERBIRD-B3            
1 43271U 18033A   26183.75721590 -.00000081  00000+0  00000+0 0  9996
2 43271   0.0160  15.2519 0001193  88.0014 252.1498  1.00272254 30214
HYLAS 4                 
1 43272U 18033B   26183.78979625  .00000000  00000+0  00000+0 0  9994
2 43272   0.0202  24.2276 0000974 121.2451  26.1743  1.00268685 30229
YAOGAN-31 01A           
1 43275U 18034A   26185.97512834 -.00000084  00000+0  89440-5 0  9990
2 43275  63.3950  45.5109 0276843   7.5502 352.9563 13.45463297404490
YAOGAN-31 01B           
1 43276U 18034B   26185.97637410 -.00000074  00000+0  22604-4 0  9996
2 43276  63.3952  45.5149 0276859   7.5035 353.0005 13.45459074404610
YAOGAN-31 01C           
1 43277U 18034C   26185.97918233 -.00000107  00000+0 -22017-4 0  9998
2 43277  63.3961  44.8743 0276985   7.2138 353.2748 13.45445278404633
WEINA 1B                
1 43279U 18034E   26185.99179800 -.00000117  00000+0 -35466-4 0  9994
2 43279  63.3955  46.0734 0276677   7.9175 352.6085 13.45372278404601
IRNSS-1I                
1 43286U 18035A   26185.77058623  .00000082  00000+0  00000+0 0  9998
2 43286  28.7927  73.9240 0017727 182.9277 358.3682  1.00278926 30255
USA 283                 
1 43339U 18036A   26182.46854735  .00000000  00000+0  00000+0 0  9999
2 43339   0.0077  35.3198 0000064   9.2412 177.7500  1.00269042 25430
COSMOS 2526             
1 43432U 18037A   26186.01841905 -.00000331  00000+0  00000+0 0  9992
2 43432   0.0319  74.0909 0000719 193.0712 150.5399  1.00274717 30138
SENTINEL-3B             
1 43437U 18039A   26185.44165457  .00000138  00000+0  75028-4 0  9997
2 43437  98.6242 252.7259 0000891 116.8484 243.2787 14.26739817426582
ZHUHAI-1 OVS-02         
1 43440U 18040B   26186.01190149  .00011065  00000+0  44208-3 0  9999
2 43440  97.0382 202.1858 0003990 161.7874 198.3508 15.25275988455434
ZHUHAI-1 OHS-02         
1 43441U 18040C   26185.98689343  .00012260  00000+0  47616-3 0  9998
2 43441  97.0363 209.1196 0010310 156.3987 203.7727 15.26156128116999
USA 285                 
1 43445U 18036E   26185.76522300 -.00000098  00000+0  00000+0 0  9991
2 43445   7.1568  66.7398 0010879 167.5714 185.8145  1.02114377 27113
USA 286                 
1 43446U 18036F   26183.06784586 -.00000180  00000+0  00000+0 0  9991
2 43446   7.1482  66.7455 0010518 165.9237 352.0955  1.02122725 27073
APSTAR-6C               
1 43450U 18041A   26186.01357163 -.00000305  00000+0  00000+0 0  9996
2 43450   0.0350 315.5482 0000595  76.0555  30.2996  1.00267569 29984
GAOFEN-5 01             
1 43461U 18043A   26185.66747583  .00000509  00000+0  11478-3 0  9999
2 43461  98.4581 157.6218 0002625  52.0777 308.0659 14.60618723434244
BANGABANDHUSAT-1        
1 43463U 18044A   26185.88864164 -.00000350  00000+0  00000+0 0  9991
2 43463   0.0319  93.0951 0001936  14.4041 254.4112  1.00271937 29881
GRACE-FO 1              
1 43476U 18047A   26185.65974829  .00005878  00000+0  15416-3 0  9993
2 43476  88.9914 195.5504 0012985  53.2728 306.9717 15.38387154452487
GRACE-FO 2              
1 43477U 18047B   26185.66002583  .00005941  00000+0  15583-3 0  9990
2 43477  88.9913 195.5502 0012999  53.3118 306.9330 15.38385192452485
IRIDIUM 161             
1 43478U 18047C   26185.43237154  .00000365  00000+0  10240-3 0  9990
2 43478  86.4473  81.2605 0002409  79.5132 280.6341 14.43282122427628
IRIDIUM 152             
1 43479U 18047D   26185.47420133  .00000372  00000+0  12562-3 0  9993
2 43479  86.3949  81.1043 0002212  81.7272 278.4174 14.34217435424961
IRIDIUM 147             
1 43480U 18047E   26185.41076119  .00000279  00000+0  92565-4 0  9998
2 43480  86.3946  81.1356 0002302  86.3202 273.8257 14.34216834424953
IRIDIUM 110             
1 43481U 18047F   26185.41710961  .00000028  00000+0  31056-5 0  9990
2 43481  86.3953  81.2259 0002328  76.0453 284.1001 14.34217730424944
IRIDIUM 162             
1 43482U 18047G   26185.70339225  .00000430  00000+0  12197-3 0  9993
2 43482  86.4472  81.0379 0002255  83.6887 276.4571 14.43281630427654
